[{"OBJECT_NAME":"ONEWEB-0335","OBJECT_ID":"2021-083R","EPOCH":"2025-09-10T08:02:05.438688","MEAN_MOTION":13.13469195,"ECCENTRICITY":0.00018978,"INCLINATION":87.902,"RA_OF_ASC_NODE":15.8483,"ARG_OF_PERICENTER":107.7946,"MEAN_ANOMALY":252.3391,"EPHEMERIS_TYPE":0,"CLASSIFICATION_TYPE":"U","NORAD_CAT_ID":49201,"ELEMENT_SET_NO":999,"REV_AT_EPOCH":19418,"BSTAR":0.0021558798,"MEAN_MOTION_DOT":8.0e-6,"MEAN_MOTION_DDOT":0},{"OBJECT_NAME":"ONEWEB-0336","OBJECT_ID":"2021-083S","EPOCH":"2025-09-10T07:20:38.423328","MEAN_MOTION":13.13471858,"ECCENTRICITY":0.0001751,"INCLINATION":87.902,"RA_OF_ASC_NODE":15.8476,"ARG_OF_PERICENTER":94.8997,"MEAN_ANOMALY":265.2332,"EPHEMERIS_TYPE":0,"CLASSIFICATION_TYPE":"U","NORAD_CAT_ID":49202,"ELEMENT_SET_NO":999,"REV_AT_EPOCH":19417,"BSTAR":-0.00030113284,"MEAN_MOTION_DOT":-9.7e-7,"MEAN_MOTION_DDOT":0},{"OBJECT_NAME":"ONEWEB-0337","OBJECT_ID":"2021-083T","EPOCH":"2025-09-10T07:35:03.053184","MEAN_MOTION":13.13471078,"ECCENTRICITY":0.00018739,"INCLINATION":87.9032,"RA_OF_ASC_NODE":15.8494,"ARG_OF_PERICENTER":104.1002,"MEAN_ANOMALY":256.0335,"EPHEMERIS_TYPE":0,"CLASSIFICATION_TYPE":"U","NORAD_CAT_ID":49203,"ELEMENT_SET_NO":999,"REV_AT_EPOCH":19417,"BSTAR":0.00045459997,"MEAN_MOTION_DOT":1.79e-6,"MEAN_MOTION_DDOT":0},{"OBJECT_NAME":"ONEWEB-0338","OBJECT_ID":"2021-083U","EPOCH":"2025-09-10T04:42:08.005536","MEAN_MOTION":13.20774254,"ECCENTRICITY":0.00015639,"INCLINATION":87.9289,"RA_OF_ASC_NODE":330.2822,"ARG_OF_PERICENTER":97.4029,"MEAN_ANOMALY":262.7282,"EPHEMERIS_TYPE":0,"CLASSIFICATION_TYPE":"U","NORAD_CAT_ID":49204,"ELEMENT_SET_NO":999,"REV_AT_EPOCH":19985,"BSTAR":-9.2065526e-5,"MEAN_MOTION_DOT":-2.4e-7,"MEAN_MOTION_DDOT":0},{"OBJECT_NAME":"ONEWEB-0339","OBJECT_ID":"2021-083V","EPOCH":"2025-09-10T07:47:27.453120","MEAN_MOTION":13.13472156,"ECCENTRICITY":0.00016696,"INCLINATION":87.9029,"RA_OF_ASC_NODE":15.8323,"ARG_OF_PERICENTER":102.7744,"MEAN_ANOMALY":257.3571,"EPHEMERIS_TYPE":0,"CLASSIFICATION_TYPE":"U","NORAD_CAT_ID":49205,"ELEMENT_SET_NO":999,"REV_AT_EPOCH":19415,"BSTAR":0.00085359673,"MEAN_MOTION_DOT":3.24e-6,"MEAN_MOTION_DDOT":0},{"OBJECT_NAME":"ONEWEB-0340","OBJECT_ID":"2021-083W","EPOCH":"2025-09-10T09:03:31.683456","MEAN_MOTION":13.18688706,"ECCENTRICITY":0.00018075,"INCLINATION":87.9182,"RA_OF_ASC_NODE":31.0127,"ARG_OF_PERICENTER":96.13,"MEAN_ANOMALY":264.0038,"EPHEMERIS_TYPE":0,"CLASSIFICATION_TYPE":"U","NORAD_CAT_ID":49206,"ELEMENT_SET_NO":999,"REV_AT_EPOCH":19309,"BSTAR":0.00010941332,"MEAN_MOTION_DOT":5.6e-7,"MEAN_MOTION_DDOT":0},{"OBJECT_NAME":"ONEWEB-0341","OBJECT_ID":"2021-083X","EPOCH":"2025-09-10T09:13:02.618112","MEAN_MOTION":13.18687555,"ECCENTRICITY":0.00018745,"INCLINATION":87.9186,"RA_OF_ASC_NODE":31.0237,"ARG_OF_PERICENTER":113.983,"MEAN_ANOMALY":246.1499,"EPHEMERIS_TYPE":0,"CLASSIFICATION_TYPE":"U","NORAD_CAT_ID":49207,"ELEMENT_SET_NO":999,"REV_AT_EPOCH":19311,"BSTAR":0.00010252233,"MEAN_MOTION_DOT":5.3e-7,"MEAN_MOTION_DDOT":0},{"OBJECT_NAME":"ONEWEB-0342","OBJECT_ID":"2021-083Y","EPOCH":"2025-09-09T17:56:42.290016","MEAN_MOTION":13.20770605,"ECCENTRICITY":0.00017591,"INCLINATION":87.9277,"RA_OF_ASC_NODE":330.3408,"ARG_OF_PERICENTER":97.9773,"MEAN_ANOMALY":262.156,"EPHEMERIS_TYPE":0,"CLASSIFICATION_TYPE":"U","NORAD_CAT_ID":49208,"ELEMENT_SET_NO":999,"REV_AT_EPOCH":19976,"BSTAR":-0.00013844239,"MEAN_MOTION_DOT":-4.3e-7,"MEAN_MOTION_DDOT":0},{"OBJECT_NAME":"ONEWEB-0343","OBJECT_ID":"2021-083Z","EPOCH":"2025-09-10T09:07:07.118400","MEAN_MOTION":13.18686862,"ECCENTRICITY":0.00015147,"INCLINATION":87.9185,"RA_OF_ASC_NODE":31.0104,"ARG_OF_PERICENTER":115.9839,"MEAN_ANOMALY":244.1449,"EPHEMERIS_TYPE":0,"CLASSIFICATION_TYPE":"U","NORAD_CAT_ID":49209,"ELEMENT_SET_NO":999,"REV_AT_EPOCH":19316,"BSTAR":0.00014210975,"MEAN_MOTION_DOT":6.9e-7,"MEAN_MOTION_DDOT":0},{"OBJECT_NAME":"ONEWEB-0344","OBJECT_ID":"2021-083AA","EPOCH":"2025-09-10T07:40:08.738112","MEAN_MOTION":13.13471384,"ECCENTRICITY":0.00019355,"INCLINATION":87.9018,"RA_OF_ASC_NODE":15.8724,"ARG_OF_PERICENTER":111.2925,"MEAN_ANOMALY":248.8411,"EPHEMERIS_TYPE":0,"CLASSIFICATION_TYPE":"U","NORAD_CAT_ID":49210,"ELEMENT_SET_NO":999,"REV_AT_EPOCH":19415,"BSTAR":0.00065747948,"MEAN_MOTION_DOT":2.53e-6,"MEAN_MOTION_DDOT":0},{"OBJECT_NAME":"ONEWEB-0345","OBJECT_ID":"2021-083AB","EPOCH":"2025-09-09T20:29:47.301216","MEAN_MOTION":13.13469797,"ECCENTRICITY":0.00018515,"INCLINATION":87.9025,"RA_OF_ASC_NODE":15.918,"ARG_OF_PERICENTER":112.1704,"MEAN_ANOMALY":247.9621,"EPHEMERIS_TYPE":0,"CLASSIFICATION_TYPE":"U","NORAD_CAT_ID":49211,"ELEMENT_SET_NO":999,"REV_AT_EPOCH":19410,"BSTAR":-0.00016035777,"MEAN_MOTION_DOT":-4.6e-7,"MEAN_MOTION_DDOT":0},{"OBJECT_NAME":"ONEWEB-0346","OBJECT_ID":"2021-083AC","EPOCH":"2025-09-10T07:30:55.577664","MEAN_MOTION":13.18687037,"ECCENTRICITY":0.0002305,"INCLINATION":87.9186,"RA_OF_ASC_NODE":31.0461,"ARG_OF_PERICENTER":89.7543,"MEAN_ANOMALY":270.3853,"EPHEMERIS_TYPE":0,"CLASSIFICATION_TYPE":"U","NORAD_CAT_ID":49212,"ELEMENT_SET_NO":999,"REV_AT_EPOCH":19309,"BSTAR":0.00029576936,"MEAN_MOTION_DOT":1.3e-6,"MEAN_MOTION_DDOT":0},{"OBJECT_NAME":"ONEWEB-0348","OBJECT_ID":"2021-083AD","EPOCH":"2025-09-10T04:37:36.929856","MEAN_MOTION":13.20771973,"ECCENTRICITY":0.00024712,"INCLINATION":87.9276,"RA_OF_ASC_NODE":330.2644,"ARG_OF_PERICENTER":105.2848,"MEAN_ANOMALY":254.8558,"EPHEMERIS_TYPE":0,"CLASSIFICATION_TYPE":"U","NORAD_CAT_ID":49213,"ELEMENT_SET_NO":999,"REV_AT_EPOCH":19985,"BSTAR":-1.6283739e-5,"MEAN_MOTION_DOT":6.0e-8,"MEAN_MOTION_DDOT":0},{"OBJECT_NAME":"ONEWEB-0350","OBJECT_ID":"2021-083AE","EPOCH":"2025-09-10T02:12:16.164864","MEAN_MOTION":13.1347218,"ECCENTRICITY":0.00019027,"INCLINATION":87.9033,"RA_OF_ASC_NODE":15.8635,"ARG_OF_PERICENTER":107.9089,"MEAN_ANOMALY":252.2248,"EPHEMERIS_TYPE":0,"CLASSIFICATION_TYPE":"U","NORAD_CAT_ID":49214,"ELEMENT_SET_NO":999,"REV_AT_EPOCH":19416,"BSTAR":0.00094990535,"MEAN_MOTION_DOT":3.6e-6,"MEAN_MOTION_DDOT":0},{"OBJECT_NAME":"ONEWEB-0351","OBJECT_ID":"2021-083AF","EPOCH":"2025-09-10T04:28:19.326720","MEAN_MOTION":13.20772331,"ECCENTRICITY":0.00011421,"INCLINATION":87.9291,"RA_OF_ASC_NODE":330.2523,"ARG_OF_PERICENTER":119.1483,"MEAN_ANOMALY":240.9765,"EPHEMERIS_TYPE":0,"CLASSIFICATION_TYPE":"U","NORAD_CAT_ID":49215,"ELEMENT_SET_NO":999,"REV_AT_EPOCH":19981,"BSTAR":3.6258985e-5,"MEAN_MOTION_DOT":2.8e-7,"MEAN_MOTION_DDOT":0},{"OBJECT_NAME":"ONEWEB-0352","OBJECT_ID":"2021-083AG","EPOCH":"2025-09-10T07:13:19.424928","MEAN_MOTION":13.13471335,"ECCENTRICITY":0.00013329,"INCLINATION":87.9013,"RA_OF_ASC_NODE":15.8578,"ARG_OF_PERICENTER":106.7593,"MEAN_ANOMALY":253.3682,"EPHEMERIS_TYPE":0,"CLASSIFICATION_TYPE":"U","NORAD_CAT_ID":49216,"ELEMENT_SET_NO":999,"REV_AT_EPOCH":19428,"BSTAR":-0.0004361688,"MEAN_MOTION_DOT":-1.47e-6,"MEAN_MOTION_DDOT":0}]
