ONEWEB-0335             
1 49201U 21083R   25253.33478517  .00000800  00000+0  21559-2 0  9996
2 49201  87.9020  15.8483 0001897 107.7946 252.3391 13.13469195194182
ONEWEB-0336             
1 49202U 21083S   25253.30600027 -.00000097  00000+0 -30113-3 0  9994
2 49202  87.9020  15.8476 0001751  94.8997 265.2332 13.13471858194172
ONEWEB-0337             
1 49203U 21083T   25253.31600756  .00000179  00000+0  45460-3 0  9995
2 49203  87.9032  15.8494 0001873 104.1002 256.0335 13.13471078194178
ONEWEB-0338             
1 49204U 21083U   25253.19592599 -.00000024  00000+0 -92066-4 0  9993
2 49204  87.9289 330.2822 0001563  97.4029 262.7282 13.20774254199856
ONEWEB-0339             
1 49205U 21083V   25253.32462330  .00000324  00000+0  85360-3 0  9997
2 49205  87.9029  15.8323 0001669 102.7744 257.3571 13.13472156194159
ONEWEB-0340             
1 49206U 21083W   25253.37745004  .00000056  00000+0  10941-3 0  9990
2 49206  87.9182  31.0127 0001807  96.1300 264.0038 13.18688706193090
ONEWEB-0341             
1 49207U 21083X   25253.38405808  .00000053  00000+0  10252-3 0  9999
2 49207  87.9186  31.0237 0001874 113.9830 246.1499 13.18687555193113
ONEWEB-0342             
1 49208U 21083Y   25252.74771169 -.00000043  00000+0 -13844-3 0  9996
2 49208  87.9277 330.3408 0001759  97.9773 262.1560 13.20770605199765
ONEWEB-0343             
1 49209U 21083Z   25253.37994350  .00000069  00000+0  14211-3 0  9991
2 49209  87.9185  31.0104 0001514 115.9839 244.1449 13.18686862193167
ONEWEB-0344             
1 49210U 21083AA  25253.31954558  .00000253  00000+0  65748-3 0  9999
2 49210  87.9018  15.8724 0001935 111.2925 248.8411 13.13471384194150
ONEWEB-0345             
1 49211U 21083AB  25252.85401969 -.00000046  00000+0 -16036-3 0  9999
2 49211  87.9025  15.9180 0001851 112.1704 247.9621 13.13469797194101
ONEWEB-0346             
1 49212U 21083AC  25253.31314326  .00000130  00000+0  29577-3 0  9998
2 49212  87.9186  31.0461 0002305  89.7543 270.3853 13.18687037193094
ONEWEB-0348             
1 49213U 21083AD  25253.19278854  .00000006  00000+0 -16284-4 0  9995
2 49213  87.9276 330.2644 0002471 105.2848 254.8558 13.20771973199853
ONEWEB-0350             
1 49214U 21083AE  25253.09185376  .00000360  00000+0  94991-3 0  9993
2 49214  87.9033  15.8635 0001902 107.9089 252.2248 13.13472180194162
ONEWEB-0351             
1 49215U 21083AF  25253.18633480  .00000028  00000+0  36259-4 0  9993
2 49215  87.9291 330.2523 0001142 119.1483 240.9765 13.20772331199812
ONEWEB-0352             
1 49216U 21083AG  25253.30091927 -.00000147  00000+0 -43617-3 0  9991
2 49216  87.9013  15.8578 0001332 106.7593 253.3682 13.13471335194280
